SWARM B                 
1 39451U 13067A   26160.27768486  .00002997  00000+0  10683-3 0  9999
2 39451  87.7440 344.7206 0003392  90.1401 270.0237 15.28502933682030
SWARM A                 
1 39452U 13067B   26160.21853081  .00009640  00000+0  16665-3 0  9998
2 39452  87.3329  59.2013 0002989  92.3720 267.7883 15.50792732705013
SWARM C                 
1 39453U 13067C   26160.21841607  .00009574  00000+0  16548-3 0  9996
2 39453  87.3329  57.7825 0002960  92.5260 267.6340 15.50795142704977
BRITE-CA1 (TORONTO)     
1 40020U 14033L   26160.29209763  .00000620  00000+0  10111-3 0  9994
2 40020  97.9729 289.3660 0077426 302.7376  56.6385 14.72665739641058
OCO 2                   
1 40059U 14035A   26160.25846523  .00000364  00000+0  90873-4 0  9994
2 40059  98.2016 101.6724 0001484  86.8639 273.2729 14.57104693634896
BRITE-PL2 (HEWELIUSZ)   
1 40119U 14049B   26160.27228885  .00001922  00000+0  18289-3 0  9994
2 40119  97.9089 272.2120 0015166 132.0173 228.2341 14.94568700640265
MMS 1                   
1 40482U 15011A   26160.33336806 -.00000019  00000+0  00000+0 0  9992
2 40482  72.1178 348.8966 8326453 167.2974 217.3632  0.28309860  1389
MMS 2                   
1 40483U 15011B   26160.33336806 -.00000019  00000+0  00000+0 0  9993
2 40483  72.1233 348.8986 8327525 167.3009 217.3709  0.28308131  1380
MMS 3                   
1 40484U 15011C   26160.33336806 -.00000019  00000+0  00000+0 0  9994
2 40484  72.1264 348.9032 8326712 167.2954 217.3673  0.28308088  1384
MMS 4                   
1 40485U 15011D   26160.33336806 -.00000019  00000+0  00000+0 0  9995
2 40485  72.1225 348.8989 8326316 167.3032 217.3556  0.28308071  1382
ASTROSAT                
1 40930U 15052A   26160.28770679  .00001533  00000+0  10479-3 0  9995
2 40930   5.9953 212.2248 0008529 281.7410  78.1761 14.82494301578654
DAMPE                   
1 41173U 15078A   26160.25882476  .00001646  00000+0  57853-4 0  9992
2 41173  97.4564 165.6873 0013743 101.4824 258.7961 15.30766462583337
PISAT                   
1 41784U 16059B   26160.24256612  .00000843  00000+0  15113-3 0  9996
2 41784  97.8179 161.0369 0027820 229.0043 130.8757 14.68969728518579
HXMT (HUIYAN)           
1 42758U 17034A   26160.30657192  .00003848  00000+0  19305-3 0  9992
2 42758  43.0132 226.9215 0030182  95.1631 265.2663 15.18422256496462
FLYING LAPTOP           
1 42831U 17042G   26160.31978546  .00003443  00000+0  27257-3 0  9999
2 42831  97.4658 316.1579 0019156 147.3152 212.9263 15.01094180485276
ZHANGHENG 1-01 (CSES-1) 
1 43194U 18015C   26160.30900007  .00005540  00000+0  25433-3 0  9993
2 43194  97.6866 325.8115 0017141 296.1309  63.8162 15.20710118463447
SALSAT                  
1 46495U 20068K   26159.90359287  .00007690  00000+0  27004-3 0  9997
2 46495  97.8856 162.4647 0008807 341.8369  18.2554 15.29680035314091
IXPE                    
1 49954U 21121A   26160.33336806  .00009470  00000+0  50764-3 0  9999
2 49954   0.2320  16.7482 0007535 318.4072  18.1569 15.10180141  5280
SMILE                   
1 69123U 26109A   26144.65318427 -.00001976  00000+0 -42379-3 0  9994
2 69123  70.0007 229.2745 0009123 259.5159 100.4951 14.57062785   802
