OBJECT_NAME,OBJECT_ID,EPOCH,MEAN_MOTION,ECCENTRICITY,INCLINATION,RA_OF_ASC_NODE,ARG_OF_PERICENTER,MEAN_ANOMALY,EPHEMERIS_TYPE,CLASSIFICATION_TYPE,NORAD_CAT_ID,ELEMENT_SET_NO,REV_AT_EPOCH,BSTAR,MEAN_MOTION_DOT,MEAN_MOTION_DDOT
SWARM B,2013-067A,2026-06-09T06:39:51.971904,15.28502933,.00033922,87.7440,344.7206,90.1401,270.0237,0,U,39451,999,68203,.10682963E-3,.2997E-4,0
SWARM A,2013-067B,2026-06-09T05:14:41.061984,15.50792732,.0002989,87.3329,59.2013,92.3720,267.7883,0,U,39452,999,70501,.16664917E-3,.964E-4,0
SWARM C,2013-067C,2026-06-09T05:14:31.148448,15.50795142,.00029602,87.3329,57.7825,92.5260,267.6340,0,U,39453,999,70497,.16548119E-3,.9574E-4,0
BRITE-CA1 (TORONTO),2014-033L,2026-06-09T07:00:37.235232,14.72665739,.00774268,97.9729,289.3660,302.7376,56.6385,0,U,40020,999,64105,.1011072E-3,.62E-5,0
OCO 2,2014-035A,2026-06-09T06:12:11.395872,14.57104693,.00014848,98.2016,101.6724,86.8639,273.2729,0,U,40059,999,63489,.908732E-4,.364E-5,0
BRITE-PL2 (HEWELIUSZ),2014-049B,2026-06-09T06:32:05.756640,14.94568700,.00151663,97.9089,272.2120,132.0173,228.2341,0,U,40119,999,64026,.18288975E-3,.1922E-4,0
MMS 1,2015-011A,2026-06-09T08:00:03.000384,0.28309860,.83264531,72.1178,348.8966,167.2974,217.3632,0,U,40482,999,138,0,-.19E-6,0
MMS 2,2015-011B,2026-06-09T08:00:03.000384,0.28308131,.83275253,72.1233,348.8986,167.3009,217.3709,0,U,40483,999,138,0,-.19E-6,0
MMS 3,2015-011C,2026-06-09T08:00:03.000384,0.28308088,.83267126,72.1264,348.9032,167.2954,217.3673,0,U,40484,999,138,0,-.19E-6,0
MMS 4,2015-011D,2026-06-09T08:00:03.000384,0.28308071,.83263168,72.1225,348.8989,167.3032,217.3556,0,U,40485,999,138,0,-.19E-6,0
ASTROSAT,2015-052A,2026-06-09T06:54:17.866656,14.82494301,.00085298,5.9953,212.2248,281.7410,78.1761,0,U,40930,999,57865,.10479036E-3,.1533E-4,0
DAMPE,2015-078A,2026-06-09T06:12:42.459264,15.30766462,.00137433,97.4564,165.6873,101.4824,258.7961,0,U,41173,999,58333,.57852956E-4,.1646E-4,0
PISAT,2016-059B,2026-06-09T05:49:17.712768,14.68969728,.00278204,97.8179,161.0369,229.0043,130.8757,0,U,41784,999,51857,.15113495E-3,.843E-5,0
HXMT (HUIYAN),2017-034A,2026-06-09T07:21:27.813888,15.18422256,.00301821,43.0132,226.9215,95.1631,265.2663,0,U,42758,999,49646,.19305374E-3,.3848E-4,0
FLYING LAPTOP,2017-042G,2026-06-09T07:40:29.463744,15.01094180,.00191565,97.4658,316.1579,147.3152,212.9263,0,U,42831,999,48527,.27256694E-3,.3443E-4,0
ZHANGHENG 1-01 (CSES-1),2018-015C,2026-06-09T07:24:57.606048,15.20710118,.0017141,97.6866,325.8115,296.1309,63.8162,0,U,43194,999,46344,.25432665E-3,.554E-4,0
SALSAT,2020-068K,2026-06-08T21:41:10.423968,15.29680035,.00088073,97.8856,162.4647,341.8369,18.2554,0,U,46495,999,31409,.27003831E-3,.769E-4,0
IXPE,2021-121A,2026-06-09T08:00:03.000384,15.10180141,.00075351,0.2320,16.7482,318.4072,18.1569,0,U,49954,999,528,.50764129E-3,.947E-4,0
SMILE,2026-109A,2026-05-24T15:40:35.120928,14.57062785,.00091232,70.0007,229.2745,259.5159,100.4951,0,U,69123,999,80,-.42378883E-3,-.1976E-4,0
